INTELSAT 10 (IS-10)     
1 26766U 01019A   17345.94878108  .00000119  00000-0  00000-0 0  9994
2 26766   1.8907  84.3321 0003547 208.7050 176.8784  1.00274361 14466
